QIANFAN-209             
1 69808U 26153J   26199.26959398  .00000134  00000+0  52753-4 0  9999
2 69808  88.9925 358.6948 0007709 170.4433 189.6907 14.23086656  1981
QIANFAN-210             
1 69809U 26153K   26199.26606872  .00000125  00000+0  48619-4 0  9992
2 69809  88.9926 358.6944 0008256 173.1711 186.9595 14.23252760  1980
QIANFAN-211             
1 69810U 26153L   26199.26548728  .00000139  00000+0  54740-4 0  9996
2 69810  88.9926 358.6942 0007876 170.1589 189.9759 14.23382353  1984
QIANFAN-212             
1 69811U 26153M   26198.55680840 -.01812966  00000+0 -88345+0 0  9995
2 69811  88.9920 358.7744 0007528 169.0889 191.0467 14.21837100  1886
QIANFAN-213             
1 69812U 26153N   26198.48676247 -.01819392  00000+0 -89107+0 0  9991
2 69812  88.9919 358.7827 0006786 174.7343 185.3920 14.21585762  1873
QIANFAN-214             
1 69813U 26153P   26198.83866892  .00000095  00000+0  33204-4 0  9999
2 69813  88.9925 358.7421 0008114 175.5831 184.5436 14.26715399  1924
QIANFAN-215             
1 69814U 26153Q   26199.25945320  .00000133  00000+0  48930-4 0  9996
2 69814  88.9924 358.6931 0008257 175.5942 184.5326 14.26718939  1987
QIANFAN-216             
1 69815U 26153R   26199.25944511  .00000137  00000+0  50405-4 0  9992
2 69815  88.9925 358.6933 0008221 175.3587 184.7684 14.26720069  1981
QIANFAN-217             
1 69816U 26153S   26199.25896637  .00000056  00000+0  17244-4 0  9992
2 69816  88.9924 358.6931 0007932 172.0905 188.0415 14.26768158  1985
QIANFAN-218             
1 69817U 26153T   26199.18843030  .00000132  00000+0  48250-4 0  9990
2 69817  88.9927 358.7016 0007698 169.5743 190.5612 14.26811220  1979
QIANFAN-219             
1 69848U 26155A   26199.24032558  .00000054  00000+0  16442-4 0  9999
2 69848  89.0064  60.5996 0030802 212.7163 147.2124 14.26455350  1810
QIANFAN-220             
1 69849U 26155B   26198.83583785 -.02023166  00000+0 -11202+1 0  9995
2 69849  89.0064  60.6507 0034003 211.1294 148.7880 14.15144118  1758
QIANFAN-221             
1 69850U 26155C   26199.23938367  .00000192  00000+0  73103-4 0  9994
2 69850  89.0064  60.5994 0030608 213.1536 146.7741 14.26647750  1810
QIANFAN-222             
1 69851U 26155D   26198.83195585  .00000049  00000+0  15570-4 0  9992
2 69851  89.0065  60.6495 0029555 214.6997 145.2267 14.22185075  1758
QIANFAN-223             
1 69852U 26155E   26199.25189267  .00000165  00000+0  67980-4 0  9991
2 69852  89.0065  60.6016 0029342 212.6138 147.3242 14.22140218  1810
QIANFAN-224             
1 69853U 26155F   26198.89566005 -.01809487  00000+0 -93450+0 0  9993
2 69853  89.0052  60.6399 0031114 224.5648 135.3039 14.18497223  1760
